AQUA                    
1 27424U 02022A   26087.90871115  .00001076  00000+0  22442-3 0  9990
2 27424  98.4206  55.6284 0001137 117.8140 264.0345 14.62020005271547
CZ-4B R/B               
1 27432U 02024C   26087.75559602  .00000037  00000+0  42127-4 0  9997
2 27432  98.8798 141.0628 0049520 329.9090 138.7605 14.14550982231930
MIDORI II (ADEOS-II)    
1 27597U 02056A   26087.84490157  .00000340  00000+0  15146-3 0  9990
2 27597  98.7801  46.4588 0000736  18.7924 341.3285 14.29299293213032
H-2A R/B                
1 27601U 02056E   26087.88908953  .00000318  00000+0  12554-3 0  9993
2 27601  98.3234  47.5275 0071365 104.1133 267.6834 14.33773303216865
CZ-4B R/B               
1 28059U 03049C   26087.84473891  .00000390  00000+0  10101-3 0  9994
2 28059  98.6892  83.5036 0048280 171.9008 188.2978 14.55037075189380
CZ-2C R/B               
1 28222U 04012C   26087.71923891  .00072206  00000+0  67816-3 0  9993
2 28222  97.7187 154.8442 0013266 233.7662 126.2372 15.66824379207252
SL-16 R/B               
1 28353U 04021B   26087.69086477  .00000188  00000+0  12254-3 0  9991
2 28353  71.0008 192.6176 0004965 346.5559  13.5430 14.14594827125528
CZ-4B R/B               
1 28415U 04035C   26087.81978779  .00009252  00000+0  32288-3 0  9994
2 28415  97.3471 121.8343 0030017 259.9327  99.8526 15.29390298182832
CZ-2C R/B               
1 28480U 04046B   26087.76811237  .00000141  00000+0  66765-4 0  9993
2 28480  98.1977   1.5635 0140588  98.3846 263.3301 14.26998763111229
ARIANE 5 R/B            
1 28499U 04049H   26087.69768542  .00000871  00000+0  10259-3 0  9994
2 28499  98.2656 256.8701 0082930 289.7656  69.4629 14.85299404148616
CZ-2D R/B               
1 28738U 05024B   26087.49187847  .00049840  00000+0  57362-3 0  9990
2 28738  97.3581 103.3508 0002437 340.8411  19.2754 15.61848764142713
ALOS (DAICHI)           
1 28931U 06002A   26087.83637023  .00001416  00000+0  24514-3 0  9996
2 28931  98.1247  43.7003 0000867 107.0313 253.0988 14.69867137 76290
